CCSDS_OMM_VERS = 2.0
CREATION_DATE  = 
ORIGINATOR     = 

OBJECT_NAME    = STARLINK-36730
OBJECT_ID      = 2026-034AA
CENTER_NAME    = EARTH
REF_FRAME      = TEME
TIME_SYSTEM    = UTC
MEAN_ELEMENT_THEORY = SGP/SGP4

EPOCH          = 2026-03-20T21:40:59.846016
MEAN_MOTION    = 15.80991963
ECCENTRICITY   = .0003041
INCLINATION    = 53.1582
RA_OF_ASC_NODE = 154.9448
ARG_OF_PERICENTER = 60.7240
MEAN_ANOMALY   = 299.4086

EPHEMERIS_TYPE = 0
CLASSIFICATION_TYPE = U
NORAD_CAT_ID   = 67874
ELEMENT_SET_NO = 999
REV_AT_EPOCH   = 571
BSTAR          = .19892746E-2
MEAN_MOTION_DOT = .413578E-2
MEAN_MOTION_DDOT = 0

CCSDS_OMM_VERS = 2.0
CREATION_DATE  = 
ORIGINATOR     = 

OBJECT_NAME    = STARLINK-36727
OBJECT_ID      = 2026-034AB
CENTER_NAME    = EARTH
REF_FRAME      = TEME
TIME_SYSTEM    = UTC
MEAN_ELEMENT_THEORY = SGP/SGP4

EPOCH          = 2026-03-20T14:04:44.476896
MEAN_MOTION    = 15.80921824
ECCENTRICITY   = .0001469
INCLINATION    = 53.1579
RA_OF_ASC_NODE = 156.5237
ARG_OF_PERICENTER = 56.0262
MEAN_ANOMALY   = 304.0900

EPHEMERIS_TYPE = 0
CLASSIFICATION_TYPE = U
NORAD_CAT_ID   = 67875
ELEMENT_SET_NO = 999
REV_AT_EPOCH   = 566
BSTAR          = .15484E-2
MEAN_MOTION_DOT = .317114E-2
MEAN_MOTION_DDOT = 0

CCSDS_OMM_VERS = 2.0
CREATION_DATE  = 
ORIGINATOR     = 

OBJECT_NAME    = STARLINK-36743
OBJECT_ID      = 2026-034AC
CENTER_NAME    = EARTH
REF_FRAME      = TEME
TIME_SYSTEM    = UTC
MEAN_ELEMENT_THEORY = SGP/SGP4

EPOCH          = 2026-03-20T14:03:39.543840
MEAN_MOTION    = 15.80922288
ECCENTRICITY   = .0001383
INCLINATION    = 53.1586
RA_OF_ASC_NODE = 156.5180
ARG_OF_PERICENTER = 95.9031
MEAN_ANOMALY   = 264.2149

EPHEMERIS_TYPE = 0
CLASSIFICATION_TYPE = U
NORAD_CAT_ID   = 67876
ELEMENT_SET_NO = 999
REV_AT_EPOCH   = 566
BSTAR          = .95994E-3
MEAN_MOTION_DOT = .193507E-2
MEAN_MOTION_DDOT = 0

CCSDS_OMM_VERS = 2.0
CREATION_DATE  = 
ORIGINATOR     = 

OBJECT_NAME    = STARLINK-36784
OBJECT_ID      = 2026-034AD
CENTER_NAME    = EARTH
REF_FRAME      = TEME
TIME_SYSTEM    = UTC
MEAN_ELEMENT_THEORY = SGP/SGP4

EPOCH          = 2026-03-20T22:00:01.999584
MEAN_MOTION    = 15.69492958
ECCENTRICITY   = .00008913
INCLINATION    = 53.1586
RA_OF_ASC_NODE = 154.9669
ARG_OF_PERICENTER = 73.6681
MEAN_ANOMALY   = 318.7759

EPHEMERIS_TYPE = 0
CLASSIFICATION_TYPE = U
NORAD_CAT_ID   = 67877
ELEMENT_SET_NO = 999
REV_AT_EPOCH   = 566
BSTAR          = -.18399763E-1
MEAN_MOTION_DOT = -.1953924E-1
MEAN_MOTION_DDOT = 0

CCSDS_OMM_VERS = 2.0
CREATION_DATE  = 
ORIGINATOR     = 

OBJECT_NAME    = STARLINK-36689
OBJECT_ID      = 2026-034AE
CENTER_NAME    = EARTH
REF_FRAME      = TEME
TIME_SYSTEM    = UTC
MEAN_ELEMENT_THEORY = SGP/SGP4

EPOCH          = 2026-03-20T14:01:29.994816
MEAN_MOTION    = 15.80951536
ECCENTRICITY   = .0001553
INCLINATION    = 53.1586
RA_OF_ASC_NODE = 156.5088
ARG_OF_PERICENTER = 68.8688
MEAN_ANOMALY   = 291.2500

EPHEMERIS_TYPE = 0
CLASSIFICATION_TYPE = U
NORAD_CAT_ID   = 67878
ELEMENT_SET_NO = 999
REV_AT_EPOCH   = 566
BSTAR          = .1335E-2
MEAN_MOTION_DOT = .272245E-2
MEAN_MOTION_DDOT = 0

CCSDS_OMM_VERS = 2.0
CREATION_DATE  = 
ORIGINATOR     = 

OBJECT_NAME    = STARLINK-36818
OBJECT_ID      = 2026-035A
CENTER_NAME    = EARTH
REF_FRAME      = TEME
TIME_SYSTEM    = UTC
MEAN_ELEMENT_THEORY = SGP/SGP4

EPOCH          = 2026-03-20T18:03:18.065952
MEAN_MOTION    = 15.75304681
ECCENTRICITY   = .00016939
INCLINATION    = 97.2876
RA_OF_ASC_NODE = 12.6766
ARG_OF_PERICENTER = 123.5463
MEAN_ANOMALY   = 236.5964

EPHEMERIS_TYPE = 0
CLASSIFICATION_TYPE = U
NORAD_CAT_ID   = 67879
ELEMENT_SET_NO = 999
REV_AT_EPOCH   = 558
BSTAR          = .17028327E-2
MEAN_MOTION_DOT = .263145E-2
MEAN_MOTION_DDOT = 0

CCSDS_OMM_VERS = 2.0
CREATION_DATE  = 
ORIGINATOR     = 

OBJECT_NAME    = STARLINK-36821
OBJECT_ID      = 2026-035B
CENTER_NAME    = EARTH
REF_FRAME      = TEME
TIME_SYSTEM    = UTC
MEAN_ELEMENT_THEORY = SGP/SGP4

EPOCH          = 2026-03-20T17:59:14.489664
MEAN_MOTION    = 15.75300082
ECCENTRICITY   = .00039312
INCLINATION    = 97.2861
RA_OF_ASC_NODE = 12.6799
ARG_OF_PERICENTER = 85.6981
MEAN_ANOMALY   = 274.4733

EPHEMERIS_TYPE = 0
CLASSIFICATION_TYPE = U
NORAD_CAT_ID   = 67880
ELEMENT_SET_NO = 999
REV_AT_EPOCH   = 558
BSTAR          = .19906499E-2
MEAN_MOTION_DOT = .309317E-2
MEAN_MOTION_DDOT = 0

CCSDS_OMM_VERS = 2.0
CREATION_DATE  = 
ORIGINATOR     = 

OBJECT_NAME    = STARLINK-36808
OBJECT_ID      = 2026-035C
CENTER_NAME    = EARTH
REF_FRAME      = TEME
TIME_SYSTEM    = UTC
MEAN_ELEMENT_THEORY = SGP/SGP4

EPOCH          = 2026-03-20T12:55:30.114336
MEAN_MOTION    = 15.80901363
ECCENTRICITY   = .00014826
INCLINATION    = 97.2898
RA_OF_ASC_NODE = 12.5054
ARG_OF_PERICENTER = 81.2731
MEAN_ANOMALY   = 278.8705

EPHEMERIS_TYPE = 0
CLASSIFICATION_TYPE = U
NORAD_CAT_ID   = 67881
ELEMENT_SET_NO = 999
REV_AT_EPOCH   = 555
BSTAR          = .11523645E-2
MEAN_MOTION_DOT = .227323E-2
MEAN_MOTION_DDOT = 0

CCSDS_OMM_VERS = 2.0
CREATION_DATE  = 
ORIGINATOR     = 

OBJECT_NAME    = STARLINK-36817
OBJECT_ID      = 2026-035D
CENTER_NAME    = EARTH
REF_FRAME      = TEME
TIME_SYSTEM    = UTC
MEAN_ELEMENT_THEORY = SGP/SGP4

EPOCH          = 2026-03-20T22:00:01.999584
MEAN_MOTION    = 15.75218293
ECCENTRICITY   = .00015066
INCLINATION    = 97.2859
RA_OF_ASC_NODE = 12.9012
ARG_OF_PERICENTER = 86.5905
MEAN_ANOMALY   = 249.1174

EPHEMERIS_TYPE = 0
CLASSIFICATION_TYPE = U
NORAD_CAT_ID   = 67882
ELEMENT_SET_NO = 999
REV_AT_EPOCH   = 556
BSTAR          = -.43561198E-3
MEAN_MOTION_DOT = -.64695E-3
MEAN_MOTION_DDOT = 0

CCSDS_OMM_VERS = 2.0
CREATION_DATE  = 
ORIGINATOR     = 

OBJECT_NAME    = STARLINK-36856
OBJECT_ID      = 2026-035E
CENTER_NAME    = EARTH
REF_FRAME      = TEME
TIME_SYSTEM    = UTC
MEAN_ELEMENT_THEORY = SGP/SGP4

EPOCH          = 2026-03-20T22:00:01.999584
MEAN_MOTION    = 15.75187824
ECCENTRICITY   = .00012393
INCLINATION    = 97.2861
RA_OF_ASC_NODE = 12.8967
ARG_OF_PERICENTER = 92.3633
MEAN_ANOMALY   = 227.3858

EPHEMERIS_TYPE = 0
CLASSIFICATION_TYPE = U
NORAD_CAT_ID   = 67883
ELEMENT_SET_NO = 999
REV_AT_EPOCH   = 556
BSTAR          = -.27630055E-3
MEAN_MOTION_DOT = -.41139E-3
MEAN_MOTION_DDOT = 0

CCSDS_OMM_VERS = 2.0
CREATION_DATE  = 
ORIGINATOR     = 

OBJECT_NAME    = STARLINK-36842
OBJECT_ID      = 2026-035F
CENTER_NAME    = EARTH
REF_FRAME      = TEME
TIME_SYSTEM    = UTC
MEAN_ELEMENT_THEORY = SGP/SGP4

EPOCH          = 2026-03-20T17:55:10.410528
MEAN_MOTION    = 15.75378467
ECCENTRICITY   = .00041399
INCLINATION    = 97.2866
RA_OF_ASC_NODE = 12.6823
ARG_OF_PERICENTER = 86.0349
MEAN_ANOMALY   = 274.1390

EPHEMERIS_TYPE = 0
CLASSIFICATION_TYPE = U
NORAD_CAT_ID   = 67884
ELEMENT_SET_NO = 999
REV_AT_EPOCH   = 558
BSTAR          = .22600518E-2
MEAN_MOTION_DOT = .354267E-2
MEAN_MOTION_DDOT = 0

CCSDS_OMM_VERS = 2.0
CREATION_DATE  = 
ORIGINATOR     = 

OBJECT_NAME    = STARLINK-36826
OBJECT_ID      = 2026-035G
CENTER_NAME    = EARTH
REF_FRAME      = TEME
TIME_SYSTEM    = UTC
MEAN_ELEMENT_THEORY = SGP/SGP4

EPOCH          = 2026-03-20T22:00:01.999584
MEAN_MOTION    = 15.75193288
ECCENTRICITY   = .00012517
INCLINATION    = 97.2868
RA_OF_ASC_NODE = 12.8834
ARG_OF_PERICENTER = 91.6305
MEAN_ANOMALY   = 202.1167

EPHEMERIS_TYPE = 0
CLASSIFICATION_TYPE = U
NORAD_CAT_ID   = 67885
ELEMENT_SET_NO = 999
REV_AT_EPOCH   = 556
BSTAR          = -.36705926E-3
MEAN_MOTION_DOT = -.54538E-3
MEAN_MOTION_DDOT = 0

